CTC1_L_00558028-03
1 10434U 24414KU  26075.70038194  .00000000  00000+0  00000-0 0  9998
2 10434  97.5000 324.0000 0000000   0.0000 126.0000 15.14663610    17
CTC1_L_00558028-04
1 10435U 24164C   26075.70038194  .00000000  00000+0  00000-0 0  9991
2 10435  97.5000 324.0000 0000000   0.0000 148.5000 15.14663610    17
CTC1_L_00558028-05
1 10436U 26275IF  26075.70038194  .00000000  00000+0  00000-0 0  9997
2 10436  97.5000 324.0000 0000000   0.0000 171.0000 15.14663610    19
CTC1_L_00558028-06
1 10437U 24865IV  26075.70038194  .00000000  00000+0  00000-0 0  9991
2 10437  97.5000 324.0000 0000000   0.0000 193.5000 15.14663610    19
CTC1_L_00558028-07
1 10438U 22634HW  26075.70038194  .00000000  00000+0  00000-0 0  9994
2 10438  97.5000 324.0000 0000000   0.0000 216.0000 15.14663610    11
CTC1_L_00558028-08
1 10439U 22456WM  26075.70038194  .00000000  00000+0  00000-0 0  9997
2 10439  97.5000 324.0000 0000000   0.0000 238.5000 15.14663610    11
CTC1_L_00558028-09
1 10440U 23928QQ  26075.70038194  .00000000  00000+0  00000-0 0  9994
2 10440  97.5000 324.0000 0000000   0.0000 261.0000 15.14663610    14
CTC1_L_00558028-10
1 10441U 24352RS  26075.70038194  .00000000  00000+0  00000-0 0  9997
2 10441  97.5000 324.0000 0000000   0.0000 283.5000 15.14663610    14
CTC1_L_00558028-11
1 10442U 26561NP  26075.70038194  .00000000  00000+0  00000-0 0  9992
2 10442  97.5000 324.0000 0000000   0.0000 306.0000 15.14663610    16
CTC1_L_00558028-12
1 10443U 25807RO  26075.70038194  .00000000  00000+0  00000-0 0  9995
2 10443  97.5000 324.0000 0000000   0.0000 328.5000 15.14663610    16
CTC1_L_00558028-13
1 10444U 22400UO  26075.70038194  .00000000  00000+0  00000-0 0  9992
2 10444  97.5000 324.0000 0000000   0.0000 351.0000 15.14663610    18
CTC1_L_00558028-14
1 10445U 26822ZB  26075.70038194  .00000000  00000+0  00000-0 0  9995
2 10445  97.5000 324.0000 0000000   0.0000  13.5000 15.14663610    19
CTC1_L_00558028-15
1 10446U 26875KW  26075.70038194  .00000000  00000+0  00000-0 0  9994
2 10446  97.5000 324.0000 0000000   0.0000  36.0000 15.14663610    10
CTC1_L_00558028-16
1 10447U 23042FM  26075.70038194  .00000000  00000+0  00000-0 0  9998
2 10447  97.5000 324.0000 0000000   0.0000  58.5000 15.14663610    10
CTC1_L_00558029-01
1 10448U 25539SB  26075.70038194  .00000000  00000+0  00000-0 0  9992
2 10448  97.5000 336.0000 0000000   0.0000  84.0000 15.14663610    18
CTC1_L_00558029-02
1 10449U 23642IG  26075.70038194  .00000000  00000+0  00000-0 0  9996
2 10449  97.5000 336.0000 0000000   0.0000 106.5000 15.14663610    19
CTC1_L_00558029-03
1 10450U 26459ER  26075.70038194  .00000000  00000+0  00000-0 0  9997
2 10450  97.5000 336.0000 0000000   0.0000 129.0000 15.14663610    11
CTC1_L_00558029-04
1 10451U 22465HY  26075.70038194  .00000000  00000+0  00000-0 0  9991
2 10451  97.5000 336.0000 0000000   0.0000 151.5000 15.14663610    12
CTC1_L_00558029-05
1 10452U 24076BZ  26075.70038194  .00000000  00000+0  00000-0 0  9992
2 10452  97.5000 336.0000 0000000   0.0000 174.0000 15.14663610    13
CTC1_L_00558029-06
1 10453U 24652OI  26075.70038194  .00000000  00000+0  00000-0 0  9993
2 10453  97.5000 336.0000 0000000   0.0000 196.5000 15.14663610    13
CTC1_L_00558029-07
1 10454U 23141GH  26075.70038194  .00000000  00000+0  00000-0 0  9996
2 10454  97.5000 336.0000 0000000   0.0000 219.0000 15.14663610    15
CTC1_L_00558029-08
1 10455U 22704AV  26075.70038194  .00000000  00000+0  00000-0 0  9991
2 10455  97.5000 336.0000 0000000   0.0000 241.5000 15.14663610    16
CTC1_L_00558029-09
1 10456U 23807UY  26075.70038194  .00000000  00000+0  00000-0 0  9997
2 10456  97.5000 336.0000 0000000   0.0000 264.0000 15.14663610    17
CTC1_L_00558029-10
1 10457U 26815QU  26075.70038194  .00000000  00000+0  00000-0 0  9990
2 10457  97.5000 336.0000 0000000   0.0000 286.5000 15.14663610    17
CTC1_L_00558029-11
1 10458U 26455LW  26075.70038194  .00000000  00000+0  00000-0 0  9991
2 10458  97.5000 336.0000 0000000   0.0000 309.0000 15.14663610    19
CTC1_L_00558029-12
1 10459U 24275RB  26075.70038194  .00000000  00000+0  00000-0 0  9990
2 10459  97.5000 336.0000 0000000   0.0000 331.5000 15.14663610    10
CTC1_L_00558029-13
1 10460U 23008GG  26075.70038194  .00000000  00000+0  00000-0 0  9995
2 10460  97.5000 336.0000 0000000   0.0000 354.0000 15.14663610    12
CTC1_L_00558029-14
1 10461U 25316JQ  26075.70038194  .00000000  00000+0  00000-0 0  9990
2 10461  97.5000 336.0000 0000000   0.0000  16.5000 15.14663610    13
CTC1_L_00558029-15
1 10462U 26102QP  26075.70038194  .00000000  00000+0  00000-0 0  9995
2 10462  97.5000 336.0000 0000000   0.0000  39.0000 15.14663610    14
CTC1_L_00558029-16
1 10463U 23402SD  26075.70038194  .00000000  00000+0  00000-0 0  9996
2 10463  97.5000 336.0000 0000000   0.0000  61.5000 15.14663610    15
CTC1_L_00558030-01
1 10464U 23267RC  26075.70038194  .00000000  00000+0  00000-0 0  9996
2 10464  97.5000 348.0000 0000000   0.0000  87.0000 15.14663610    12
CTC1_L_00558030-02
1 10465U 26830ER  26075.70038194  .00000000  00000+0  00000-0 0  9996
2 10465  97.5000 348.0000 0000000   0.0000 109.5000 15.14663610    13
CTC1_L_00558030-03
1 10466U 26118MM  26075.70038194  .00000000  00000+0  00000-0 0  9996
2 10466  97.5000 348.0000 0000000   0.0000 132.0000 15.14663610    15
CTC1_L_00558030-04
1 10467U 24185GT  26075.70038194  .00000000  00000+0  00000-0 0  9999
2 10467  97.5000 348.0000 0000000   0.0000 154.5000 15.14663610    15
CTC1_L_00558030-05
1 10468U 22590CO  26075.70038194  .00000000  00000+0  00000-0 0  9998
2 10468  97.5000 348.0000 0000000   0.0000 177.0000 15.14663610    16
CTC1_L_00558030-06
1 10469U 24095R   26075.70038194  .00000000  00000+0  00000-0 0  9991
2 10469  97.5000 348.0000 0000000   0.0000 199.5000 15.14663610    16
CTC1_L_00558030-07
1 10470U 25324CE  26075.70038194  .00000000  00000+0  00000-0 0  9999
2 10470  97.5000 348.0000 0000000   0.0000 222.0000 15.14663610    10
CTC1_L_00558030-08
1 10471U 23771HZ  26075.70038194  .00000000  00000+0  00000-0 0  9994
2 10471  97.5000 348.0000 0000000   0.0000 244.5000 15.14663610    10
CTC1_L_00558030-09
1 10472U 22801GY  26075.70038194  .00000000  00000+0  00000-0 0  9998
2 10472  97.5000 348.0000 0000000   0.0000 267.0000 15.14663610    11
CTC1_L_00558030-10
1 10473U 24178BY  26075.70038194  .00000000  00000+0  00000-0 0  9998
2 10473  97.5000 348.0000 0000000   0.0000 289.5000 15.14663610    11
CTC1_L_00558030-11
1 10474U 25094YT  26075.70038194  .00000000  00000+0  00000-0 0  9997
2 10474  97.5000 348.0000 0000000   0.0000 312.0000 15.14663610    14
CTC1_L_00558030-12
1 10475U 24626GJ  26075.70038194  .00000000  00000+0  00000-0 0  9998
2 10475  97.5000 348.0000 0000000   0.0000 334.5000 15.14663610    14
CTC1_L_00558030-13
1 10476U 26565PW  26075.70038194  .00000000  00000+0  00000-0 0  9993
2 10476  97.5000 348.0000 0000000   0.0000 357.0000 15.14663610    15
CTC1_L_00558030-14
1 10477U 22051FK  26075.70038194  .00000000  00000+0  00000-0 0  9990
2 10477  97.5000 348.0000 0000000   0.0000  19.5000 15.14663610    16
CTC1_L_00558030-15
1 10478U 23437BH  26075.70038194  .00000000  00000+0  00000-0 0  9990
2 10478  97.5000 348.0000 0000000   0.0000  42.0000 15.14663610    18
CTC1_L_00558030-16
1 10479U 24026OQ  26075.70038194  .00000000  00000+0  00000-0 0  9996
2 10479  97.5000 348.0000 0000000   0.0000  64.5000 15.14663610    18
